NEXTSAT-1               
1 43811U 18099BF  26068.68342010  .00004546  00000+0  29857-3 0  9992
2 43811  97.4203 114.8574 0011320 323.9610  36.0854 15.08057555396886
STARLINK-4629           
1 53968U 22125E   26068.69213918  .00001396  00000+0  10578-3 0  9996
2 53968  53.2155 224.0272 0001403 103.9356 256.1792 15.08838312189322
